CCSDS_OMM_VERS = 2.0
CREATION_DATE  = 
ORIGINATOR     = 

OBJECT_NAME    = SL-14 R/B
OBJECT_ID      = 1991-042B
CENTER_NAME    = EARTH
REF_FRAME      = TEME
TIME_SYSTEM    = UTC
MEAN_ELEMENT_THEORY = SGP/SGP4

EPOCH          = 2026-02-04T01:29:19.046400
MEAN_MOTION    = 14.81797003
ECCENTRICITY   = .00169489
INCLINATION    = 82.4903
RA_OF_ASC_NODE = 251.7237
ARG_OF_PERICENTER = 356.9091
MEAN_ANOMALY   = 3.2015

EPHEMERIS_TYPE = 0
CLASSIFICATION_TYPE = U
NORAD_CAT_ID   = 21423
ELEMENT_SET_NO = 999
REV_AT_EPOCH   = 84809
BSTAR          = .49487937E-4
MEAN_MOTION_DOT = .415E-5
MEAN_MOTION_DDOT = 0

CCSDS_OMM_VERS = 2.0
CREATION_DATE  = 
ORIGINATOR     = 

OBJECT_NAME    = ERS-1
OBJECT_ID      = 1991-050A
CENTER_NAME    = EARTH
REF_FRAME      = TEME
TIME_SYSTEM    = UTC
MEAN_ELEMENT_THEORY = SGP/SGP4

EPOCH          = 2026-02-04T01:17:23.212032
MEAN_MOTION    = 14.39420653
ECCENTRICITY   = .00310201
INCLINATION    = 98.7895
RA_OF_ASC_NODE = 52.4425
ARG_OF_PERICENTER = 303.1366
MEAN_ANOMALY   = 56.6845

EPHEMERIS_TYPE = 0
CLASSIFICATION_TYPE = U
NORAD_CAT_ID   = 21574
ELEMENT_SET_NO = 999
REV_AT_EPOCH   = 81089
BSTAR          = .1415364E-3
MEAN_MOTION_DOT = .396E-5
MEAN_MOTION_DDOT = 0

CCSDS_OMM_VERS = 2.0
CREATION_DATE  = 
ORIGINATOR     = 

OBJECT_NAME    = ARIANE 40 R/B
OBJECT_ID      = 1991-050F
CENTER_NAME    = EARTH
REF_FRAME      = TEME
TIME_SYSTEM    = UTC
MEAN_ELEMENT_THEORY = SGP/SGP4

EPOCH          = 2026-02-04T04:25:54.212736
MEAN_MOTION    = 14.42867798
ECCENTRICITY   = .00035546
INCLINATION    = 98.2081
RA_OF_ASC_NODE = 88.6670
ARG_OF_PERICENTER = 156.4956
MEAN_ANOMALY   = 203.6398

EPHEMERIS_TYPE = 0
CLASSIFICATION_TYPE = U
NORAD_CAT_ID   = 21610
ELEMENT_SET_NO = 999
REV_AT_EPOCH   = 81416
BSTAR          = .12544965E-3
MEAN_MOTION_DOT = .377E-5
MEAN_MOTION_DDOT = 0

CCSDS_OMM_VERS = 2.0
CREATION_DATE  = 
ORIGINATOR     = 

OBJECT_NAME    = INTERCOSMOS 25
OBJECT_ID      = 1991-086A
CENTER_NAME    = EARTH
REF_FRAME      = TEME
TIME_SYSTEM    = UTC
MEAN_ELEMENT_THEORY = SGP/SGP4

EPOCH          = 2026-02-04T07:15:14.713632
MEAN_MOTION    = 12.11907919
ECCENTRICITY   = .14865795
INCLINATION    = 82.6089
RA_OF_ASC_NODE = 330.1838
ARG_OF_PERICENTER = 188.8648
MEAN_ANOMALY   = 168.3234

EPHEMERIS_TYPE = 0
CLASSIFICATION_TYPE = U
NORAD_CAT_ID   = 21819
ELEMENT_SET_NO = 999
REV_AT_EPOCH   = 49264
BSTAR          = .14388929E-3
MEAN_MOTION_DOT = .747E-5
MEAN_MOTION_DDOT = 0

CCSDS_OMM_VERS = 2.0
CREATION_DATE  = 
ORIGINATOR     = 

OBJECT_NAME    = SL-8 R/B
OBJECT_ID      = 1992-008B
CENTER_NAME    = EARTH
REF_FRAME      = TEME
TIME_SYSTEM    = UTC
MEAN_ELEMENT_THEORY = SGP/SGP4

EPOCH          = 2026-02-04T05:01:54.222240
MEAN_MOTION    = 13.75969273
ECCENTRICITY   = .00335906
INCLINATION    = 82.9273
RA_OF_ASC_NODE = 292.6839
ARG_OF_PERICENTER = 226.9067
MEAN_ANOMALY   = 245.6738

EPHEMERIS_TYPE = 0
CLASSIFICATION_TYPE = U
NORAD_CAT_ID   = 21876
ELEMENT_SET_NO = 999
REV_AT_EPOCH   = 70481
BSTAR          = .64554435E-4
MEAN_MOTION_DOT = .78E-6
MEAN_MOTION_DDOT = 0

CCSDS_OMM_VERS = 2.0
CREATION_DATE  = 
ORIGINATOR     = 

OBJECT_NAME    = SL-8 R/B
OBJECT_ID      = 1992-020B
CENTER_NAME    = EARTH
REF_FRAME      = TEME
TIME_SYSTEM    = UTC
MEAN_ELEMENT_THEORY = SGP/SGP4

EPOCH          = 2026-02-04T04:22:15.962016
MEAN_MOTION    = 13.75544189
ECCENTRICITY   = .00295764
INCLINATION    = 82.9322
RA_OF_ASC_NODE = 178.6326
ARG_OF_PERICENTER = 33.6603
MEAN_ANOMALY   = 140.0565

EPHEMERIS_TYPE = 0
CLASSIFICATION_TYPE = U
NORAD_CAT_ID   = 21938
ELEMENT_SET_NO = 999
REV_AT_EPOCH   = 69652
BSTAR          = .11322918E-3
MEAN_MOTION_DOT = .125E-5
MEAN_MOTION_DDOT = 0

CCSDS_OMM_VERS = 2.0
CREATION_DATE  = 
ORIGINATOR     = 

OBJECT_NAME    = USA 81
OBJECT_ID      = 1992-023A
CENTER_NAME    = EARTH
REF_FRAME      = TEME
TIME_SYSTEM    = UTC
MEAN_ELEMENT_THEORY = SGP/SGP4

EPOCH          = 2026-02-04T06:24:00.018432
MEAN_MOTION    = 14.32354880
ECCENTRICITY   = .00025059
INCLINATION    = 85.0119
RA_OF_ASC_NODE = 150.7122
ARG_OF_PERICENTER = 107.3143
MEAN_ANOMALY   = 252.8324

EPHEMERIS_TYPE = 0
CLASSIFICATION_TYPE = U
NORAD_CAT_ID   = 21949
ELEMENT_SET_NO = 999
REV_AT_EPOCH   = 9000
BSTAR          = .88932179E-4
MEAN_MOTION_DOT = .26E-5
MEAN_MOTION_DDOT = 0

CCSDS_OMM_VERS = 2.0
CREATION_DATE  = 
ORIGINATOR     = 

OBJECT_NAME    = COSMOS 2219
OBJECT_ID      = 1992-076A
CENTER_NAME    = EARTH
REF_FRAME      = TEME
TIME_SYSTEM    = UTC
MEAN_ELEMENT_THEORY = SGP/SGP4

EPOCH          = 2026-02-04T06:34:24.485664
MEAN_MOTION    = 14.14077344
ECCENTRICITY   = .00205248
INCLINATION    = 71.0589
RA_OF_ASC_NODE = 87.9274
ARG_OF_PERICENTER = 253.2615
MEAN_ANOMALY   = 106.6255

EPHEMERIS_TYPE = 0
CLASSIFICATION_TYPE = U
NORAD_CAT_ID   = 22219
ELEMENT_SET_NO = 999
REV_AT_EPOCH   = 71365
BSTAR          = -.80280451E-4
MEAN_MOTION_DOT = -.2E-5
MEAN_MOTION_DDOT = 0

CCSDS_OMM_VERS = 2.0
CREATION_DATE  = 
ORIGINATOR     = 

OBJECT_NAME    = SL-16 R/B
OBJECT_ID      = 1992-076B
CENTER_NAME    = EARTH
REF_FRAME      = TEME
TIME_SYSTEM    = UTC
MEAN_ELEMENT_THEORY = SGP/SGP4

EPOCH          = 2026-02-04T02:41:41.938944
MEAN_MOTION    = 14.16853529
ECCENTRICITY   = .00118356
INCLINATION    = 70.9983
RA_OF_ASC_NODE = 259.1051
ARG_OF_PERICENTER = 155.4747
MEAN_ANOMALY   = 14.0111

EPHEMERIS_TYPE = 0
CLASSIFICATION_TYPE = U
NORAD_CAT_ID   = 22220
ELEMENT_SET_NO = 999
REV_AT_EPOCH   = 71707
BSTAR          = .16406028E-3
MEAN_MOTION_DOT = .281E-5
MEAN_MOTION_DDOT = 0

CCSDS_OMM_VERS = 2.0
CREATION_DATE  = 
ORIGINATOR     = 

OBJECT_NAME    = COSMOS 2221
OBJECT_ID      = 1992-080A
CENTER_NAME    = EARTH
REF_FRAME      = TEME
TIME_SYSTEM    = UTC
MEAN_ELEMENT_THEORY = SGP/SGP4

EPOCH          = 2026-02-04T06:19:57.028800
MEAN_MOTION    = 14.96060951
ECCENTRICITY   = .00132053
INCLINATION    = 82.5065
RA_OF_ASC_NODE = 311.0914
ARG_OF_PERICENTER = 310.2583
MEAN_ANOMALY   = 49.7483

EPHEMERIS_TYPE = 0
CLASSIFICATION_TYPE = U
NORAD_CAT_ID   = 22236
ELEMENT_SET_NO = 999
REV_AT_EPOCH   = 77579
BSTAR          = .21639761E-3
MEAN_MOTION_DOT = .2459E-4
MEAN_MOTION_DDOT = 0

CCSDS_OMM_VERS = 2.0
CREATION_DATE  = 
ORIGINATOR     = 

OBJECT_NAME    = SL-16 R/B
OBJECT_ID      = 1992-093B
CENTER_NAME    = EARTH
REF_FRAME      = TEME
TIME_SYSTEM    = UTC
MEAN_ELEMENT_THEORY = SGP/SGP4

EPOCH          = 2026-02-04T07:29:57.380352
MEAN_MOTION    = 14.15441800
ECCENTRICITY   = .00050409
INCLINATION    = 71.0205
RA_OF_ASC_NODE = 74.3365
ARG_OF_PERICENTER = 328.4306
MEAN_ANOMALY   = 31.6514

EPHEMERIS_TYPE = 0
CLASSIFICATION_TYPE = U
NORAD_CAT_ID   = 22285
ELEMENT_SET_NO = 999
REV_AT_EPOCH   = 70843
BSTAR          = -.88239873E-4
MEAN_MOTION_DOT = -.22E-5
MEAN_MOTION_DDOT = 0

CCSDS_OMM_VERS = 2.0
CREATION_DATE  = 
ORIGINATOR     = 

OBJECT_NAME    = COSMOS 2228
OBJECT_ID      = 1992-094A
CENTER_NAME    = EARTH
REF_FRAME      = TEME
TIME_SYSTEM    = UTC
MEAN_ELEMENT_THEORY = SGP/SGP4

EPOCH          = 2026-02-04T05:38:41.794080
MEAN_MOTION    = 14.97033715
ECCENTRICITY   = .00193678
INCLINATION    = 82.5161
RA_OF_ASC_NODE = 269.3453
ARG_OF_PERICENTER = 56.9471
MEAN_ANOMALY   = 303.3608

EPHEMERIS_TYPE = 0
CLASSIFICATION_TYPE = U
NORAD_CAT_ID   = 22286
ELEMENT_SET_NO = 999
REV_AT_EPOCH   = 77105
BSTAR          = .18954317E-3
MEAN_MOTION_DOT = .2216E-4
MEAN_MOTION_DDOT = 0

